{
  "norad_id": 28786,
  "name": "THAICOM 4",
  "history": [
    {
      "epoch": "2026-03-28T21:34:38.718336Z",
      "apogee_km": 35794.848180317305,
      "perigee_km": 35778.091122341924,
      "latitude_deg": 0.01888906501148544,
      "longitude_deg": 119.4871258902714,
      "height_km": 35787.45178272196,
      "semi_major_axis_km": 42164.60665132962,
      "eccentricity": 0.00019871,
      "inclination_deg": 0.0438,
      "raan_deg": 85.3777,
      "arg_perigee_deg": 284.414,
      "mean_anomaly_deg": 259.6687,
      "mean_motion_rev_day": 1.00272232
    },
    {
      "epoch": "2026-03-28T23:54:35.519616Z",
      "apogee_km": 35794.87526873003,
      "perigee_km": 35778.09374936943,
      "latitude_deg": -0.005602335610445183,
      "longitude_deg": 119.48899417191554,
      "height_km": 35782.46883534744,
      "semi_major_axis_km": 42164.62150904973,
      "eccentricity": 0.000199,
      "inclination_deg": 0.0441,
      "raan_deg": 85.1925,
      "arg_perigee_deg": 284.8717,
      "mean_anomaly_deg": 294.4789,
      "mean_motion_rev_day": 1.00272179
    },
    {
      "epoch": "2026-03-29T23:52:08.810688Z",
      "apogee_km": 35795.06946919706,
      "perigee_km": 35778.152972210904,
      "latitude_deg": -0.004928000017078533,
      "longitude_deg": 119.4881452100322,
      "height_km": 35782.85830283925,
      "semi_major_axis_km": 42164.74822070398,
      "eccentricity": 0.0002006,
      "inclination_deg": 0.0471,
      "raan_deg": 84.3051,
      "arg_perigee_deg": 288.2908,
      "mean_anomaly_deg": 292.3207,
      "mean_motion_rev_day": 1.00271727
    },
    {
      "epoch": "2026-03-30T02:37:38.614944Z",
      "apogee_km": 35795.105127779345,
      "perigee_km": 35778.149832686555,
      "latitude_deg": -0.03154534190221055,
      "longitude_deg": 119.4989357706178,
      "height_km": 35778.48895282773,
      "semi_major_axis_km": 42164.76448023295,
      "eccentricity": 0.00020106,
      "inclination_deg": 0.0475,
      "raan_deg": 84.2021,
      "arg_perigee_deg": 288.6769,
      "mean_anomaly_deg": 333.525,
      "mean_motion_rev_day": 1.00271669
    },
    {
      "epoch": "2026-03-30T11:15:38.860992Z",
      "apogee_km": 35795.22041232238,
      "perigee_km": 35778.119209975914,
      "latitude_deg": -0.002009800801822548,
      "longitude_deg": 119.5308544979841,
      "height_km": 35788.04123181335,
      "semi_major_axis_km": 42164.80681114915,
      "eccentricity": 0.00020279,
      "inclination_deg": 0.0485,
      "raan_deg": 83.9102,
      "arg_perigee_deg": 289.8493,
      "mean_anomaly_deg": 102.4997,
      "mean_motion_rev_day": 1.00271518
    },
    {
      "epoch": "2026-03-30T20:35:38.766048Z",
      "apogee_km": 35795.28930945065,
      "perigee_km": 35778.14002098138,
      "latitude_deg": 0.02903730287684644,
      "longitude_deg": 119.48694712929526,
      "height_km": 35790.4828002605,
      "semi_major_axis_km": 42164.85166521602,
      "eccentricity": 0.00020336,
      "inclination_deg": 0.0496,
      "raan_deg": 83.6086,
      "arg_perigee_deg": 292.9728,
      "mean_anomaly_deg": 240.0608,
      "mean_motion_rev_day": 1.00271358
    },
    {
      "epoch": "2026-03-31T17:40:38.573184Z",
      "apogee_km": 35795.54624554557,
      "perigee_km": 35778.09838538083,
      "latitude_deg": 0.04242029390065025,
      "longitude_deg": 119.49704424339825,
      "height_km": 35794.8011488635,
      "semi_major_axis_km": 42164.9593154632,
      "eccentricity": 0.0002069,
      "inclination_deg": 0.052,
      "raan_deg": 82.8621,
      "arg_perigee_deg": 296.7289,
      "mean_anomaly_deg": 194.1644,
      "mean_motion_rev_day": 1.00270974
    },
    {
      "epoch": "2026-04-01T18:22:51.833280Z",
      "apogee_km": 35794.99287486542,
      "perigee_km": 35777.890921664286,
      "latitude_deg": 0.041176413662608796,
      "longitude_deg": 119.49536635791229,
      "height_km": 35793.71040907719,
      "semi_major_axis_km": 42164.57889826485,
      "eccentricity": 0.0002028,
      "inclination_deg": 0.0546,
      "raan_deg": 82.239,
      "arg_perigee_deg": 298.1368,
      "mean_anomaly_deg": 204.9549,
      "mean_motion_rev_day": 1.00272331
    },
    {
      "epoch": "2026-04-02T19:10:38.757216Z",
      "apogee_km": 35795.330112796786,
      "perigee_km": 35777.8401860492,
      "latitude_deg": 0.03761987351894679,
      "longitude_deg": 119.48982620876134,
      "height_km": 35793.30008683711,
      "semi_major_axis_km": 42164.722149422996,
      "eccentricity": 0.0002074,
      "inclination_deg": 0.0569,
      "raan_deg": 81.5682,
      "arg_perigee_deg": 302.2075,
      "mean_anomaly_deg": 214.5201,
      "mean_motion_rev_day": 1.0027182
    },
    {
      "epoch": "2026-04-02T21:59:37.620960Z",
      "apogee_km": 35795.33794905906,
      "perigee_km": 35777.85982273963,
      "latitude_deg": 0.014287384254784414,
      "longitude_deg": 119.4799114551347,
      "height_km": 35788.0882196696,
      "semi_major_axis_km": 42164.73588589935,
      "eccentricity": 0.00020726,
      "inclination_deg": 0.0572,
      "raan_deg": 81.5032,
      "arg_perigee_deg": 302.4475,
      "mean_anomaly_deg": 256.7061,
      "mean_motion_rev_day": 1.00271771
    },
    {
      "epoch": "2026-04-03T18:31:47.343936Z",
      "apogee_km": 35795.587562518755,
      "perigee_km": 35777.83616114793,
      "latitude_deg": 0.04027110824592211,
      "longitude_deg": 119.49100281856117,
      "height_km": 35794.4135647798,
      "semi_major_axis_km": 42164.84886183334,
      "eccentricity": 0.0002105,
      "inclination_deg": 0.0589,
      "raan_deg": 81.3904,
      "arg_perigee_deg": 305.4054,
      "mean_anomaly_deg": 202.7444,
      "mean_motion_rev_day": 1.00271368
    },
    {
      "epoch": "2026-04-04T01:22:30.086688Z",
      "apogee_km": 35793.17520341075,
      "perigee_km": 35773.68644030078,
      "latitude_deg": -0.025400723502641342,
      "longitude_deg": 119.48558241564118,
      "height_km": 35778.84909397792,
      "semi_major_axis_km": 42161.567821855766,
      "eccentricity": 0.00023112,
      "inclination_deg": 0.0595,
      "raan_deg": 81.2728,
      "arg_perigee_deg": 316.8236,
      "mean_anomaly_deg": 294.413,
      "mean_motion_rev_day": 1.00283073
    },
    {
      "epoch": "2026-04-05T13:56:36.666816Z",
      "apogee_km": 35795.242990747094,
      "perigee_km": 35777.68902322323,
      "latitude_deg": 0.036781245619718,
      "longitude_deg": 119.52329840956055,
      "height_km": 35792.01075211067,
      "semi_major_axis_km": 42164.60300698517,
      "eccentricity": 0.00020816,
      "inclination_deg": 0.0623,
      "raan_deg": 80.9667,
      "arg_perigee_deg": 308.2803,
      "mean_anomaly_deg": 133.2905,
      "mean_motion_rev_day": 1.00272245
    },
    {
      "epoch": "2026-04-05T20:09:32.587200Z",
      "apogee_km": 35795.31682286377,
      "perigee_km": 35777.692002753225,
      "latitude_deg": 0.02492373779685613,
      "longitude_deg": 119.48885309663753,
      "height_km": 35792.10638228036,
      "semi_major_axis_km": 42164.6414128085,
      "eccentricity": 0.000209,
      "inclination_deg": 0.0627,
      "raan_deg": 80.8319,
      "arg_perigee_deg": 308.9998,
      "mean_anomaly_deg": 226.1947,
      "mean_motion_rev_day": 1.00272108
    }
  ]
}